42P/Neujmin,e,3.9884,150.1554,147.1622,4.877682,0.0914922,0.58402395,322.6707,12/03.0/2024,2000,g 13.0,6.0
# From MPEC 2024-X74
43P/Wolf-Harrington,e,9.3343,243.9951,223.9023,4.329051,0.1094246,0.43586233,333.1880,12/03.0/2024,2000,g  8.0,6.0
# From MPEC 2024-F34
44P/Reinmuth,e,5.8960,286.4231,58.0130,3.687760,0.1391746,0.42686787,132.9872,12/03.0/2024,2000,g  8.3,6.0
# From MPEC 2022-O01
45P/Honda-Mrkos-Pajdusakova,e,4.3241,87.6856,327.9462,3.056680,0.1844290,0.81771751,175.3379,12/03.0/2024,2000,g 13.5,8.0
# From MPEC 2024-F91
46P/Wirtanen,e,11.7499,82.1609,356.3251,3.091325,0.1813373,0.65876169,35.8866,12/03.0/2024,2000,g 14.0,6.0
# From MPEC 2024-PC5
47P/Ashbrook-Jackson,e,13.0375,356.8894,357.8932,4.118747,0.1179116,0.31837155,321.2176,12/03.0/2024,2000,g  1.0,11.2
# From MPEC 2024-UA9
48P/Johnson,e,12.2015,110.0640,216.7772,3.499910,0.1505285,0.42668112,346.5056,12/03.0/2024,2000,g 10.0,6.0
# From MPEC 2024-X74
49P/Arend-Rigaux,e,19.0587,118.7941,332.9379,3.569491,0.1461486,0.59901156,341.2012,12/03.0/2024,2000,g 11.3,4.4
# From MPEC 2024-X74
50P/Arend,e,19.0986,355.1494,49.3317,4.088597,0.1192182,0.52988781,24.3553,12/03.0/2024,2000,g  9.5,6.0
# From MPEC 2023-J29
51P/Harrington,e,5.4263,83.6579,269.2436,3.705415,0.1381811,0.54294044,109.7229,12/03.0/2024,2000,g 10.0,8.0
# From NK 3014
51P-A/Harrington,e,5.4263,269.2304,83.6515,3.706670,0.1381110,0.54313179,109.3110,12/03.0/2024,2000,g 10.0,8.0
# From MPEC 2023-J29
51P-D/Harrington,e,5.4268,83.6462,269.2618,3.705768,0.1381614,0.54307037,109.6487,12/03.0/2024,2000,g 16.0,8.0
# From MPEC 2023-XP6
52P/Harrington-Abell,e,10.2354,336.7697,139.5890,3.862290,0.1298484,0.54096873,149.8610,12/03.0/2024,2000,g 13.5,6.0
# From MPEC 2023-TM6
53P/VanBiesbroeck,e,6.6029,148.8507,134.3737,5.437907,0.0777242,0.54954463,244.5989,12/03.0/2024,2000,g  7.7,4.8
# From MPEC 2024-X74
54P/deVico-Swift-NEAT,e,6.0639,358.7964,1.9933,3.786612,0.1337605,0.42642592,12.0432,12/03.0/2024,2000,g 10.0,6.0
# From MPC 31070
55P/Tempel-Tuttle,e,162.4946,235.4169,172.4768,10.34227,0.0296333,0.90563614,290.0244,12/03.0/2024,2000,g  9.0,4.0
# From MPEC 2023-TM6
56P/Slaughter-Burnham,e,8.1552,345.9095,44.1947,5.063519,0.0865019,0.50852673,263.8802,12/03.0/2024,2000,g  8.5,6.0
# From MPEC 2024-DC6
57P/duToit-Neujmin-Delporte,e,2.8526,188.7619,115.0643,3.441621,0.1543688,0.50092893,176.5167,12/03.0/2024,2000,g 12.5,6.0
# From MPEC 2024-A43
58P/Jackson-Neujmin,e,13.0925,159.0515,200.5790,4.090427,0.1191382,0.66194937,196.6598,12/03.0/2024,2000,g 15.5,6.0
# From MPEC 2023-A50
59P/Kearns-Kwee,e,9.3537,312.7347,127.6372,4.479947,0.1039429,0.47700004,235.4462,12/03.0/2024,2000,g  7.0,6.0
# From MPEC 2021-F20
60P/Tsuchinshan,e,3.5813,267.4268,216.9196,3.529348,0.1486491,0.53381060,325.8605,12/03.0/2024,2000,g 11.5,6.0
# From MPEC 2024-JU4
61P/Shajn-Schaldach,e,5.9980,162.9639,221.6915,3.689904,0.1390534,0.42332464,107.2615,12/03.0/2024,2000,g  6.0,10.0
# From MPEC 2024-O39
62P/Tsuchinshan,e,4.7375,68.6663,47.3165,3.370331,0.1592925,0.62466825,54.7725,12/03.0/2024,2000,g  8.0,10.0
# From MPC 84320
63P/Wild,e,19.6320,357.8198,168.8246,5.643009,0.0735255,0.65059582,317.3228,12/03.0/2024,2000,g 10.5,6.0
# From MPEC 2024-A43
64P/Swift-Gehrels,e,8.9527,299.7892,97.3173,4.452119,0.1049190,0.68862371,232.6610,12/03.0/2024,2000,g  9.5,12.0
# From MPEC 2024-R10
65P/Gunn,e,9.1759,61.9767,213.7078,3.891655,0.1283815,0.24810699,334.8850,12/03.0/2024,2000,g  5.0,6.0
# From MPEC 2021-F20
66P/duToit,e,18.6432,21.8168,257.4253,6.070702,0.0658940,0.78502014,157.8023,12/03.0/2024,2000,g 15.0,4.0
# From MPEC 2024-C04
67P/Churyumov-Gerasimenko,e,3.8698,36.3233,22.1931,3.458362,0.1532493,0.64997092,172.6167,12/03.0/2024,2000,g 11.0,4.0
# From MPEC 2023-HD1
68P/Klemola,e,11.1030,175.0811,153.2470,4.962874,0.0891465,0.63602647,165.1741,12/03.0/2024,2000,g 12.6,4.0
# From MPEC 2024-C04
69P/Taylor,e,22.0610,104.8077,343.4626,3.881419,0.1288897,0.41464920,268.5816,12/03.0/2024,2000,g  9.5,12.0
# From MPEC 2023-VM5
70P/Kojima,e,6.6021,119.2358,1.7793,3.675764,0.1398565,0.45463901,157.3766,12/03.0/2024,2000,g 11.0,6.0
# From MPEC 2024-X74
71P/Clark,e,9.4026,59.3847,209.8493,3.160722,0.1753980,0.49183225,119.1897,12/03.0/2024,2000,g  9.8,6.0
# From MPEC 2023-VM5
72P/Denning-Fujikawa,e,10.9469,26.7087,346.7443,4.307506,0.1102466,0.81848838,59.1254,12/03.0/2024,2000,g 17.5,10.0
# From MPEC 2023-RF3
73P/Schwassmann-Wachmann,e,11.2071,69.4097,198.9556,3.060834,0.1840536,0.70175507,151.1834,12/03.0/2024,2000,g 11.5,6.0
# From NK 1613
73P-B/Schwassmann-Wachmann B,e,10.9634,197.3062,71.2342,3.076692,0.1826325,0.69454022,150.1085,12/03.0/2024,2000,g  9.0,4.0
# From NK 2710
73P-C/Schwassmann-Wachmann,e,10.9700,197.4280,71.1471,3.075544,0.1827347,0.69417665,150.9494,12/03.0/2024,2000,g  9.0,4.0
# From NK 934
73P-E/Schwassmann-Wachmann,e,10.9434,197.0923,71.4175,3.080118,0.1823279,0.69525381,148.2261,12/03.0/2024,2000,g  9.0,4.0
# From MPC 56796
73P-G/Schwassmann-Wachmann,e,11.388,69.909,198.772,3.06230,0.183922,0.6933024,359.982,06/08.0/2006,2000,g  9.0,4.0
# From MPC 56796
73P-H/Schwassmann-Wachmann,e,11.389,69.903,198.778,3.06223,0.183927,0.6933024,359.948,06/08.0/2006,2000,g  9.0,4.0
# From MPC 56796
73P-J/Schwassmann-Wachmann,e,11.386,69.983,198.673,3.06380,0.183786,0.6933024,359.974,06/08.0/2006,2000,g  9.0,4.0
# From MPC 56797
73P-K/Schwassmann-Wachmann,e,11.390,69.881,198.809,3.06176,0.183970,0.6933024,359.959,06/08.0/2006,2000,g  9.0,4.0
# From MPC 56797
73P-L/Schwassmann-Wachmann,e,11.388,69.911,198.772,3.06211,0.183938,0.6933024,359.937,06/08.0/2006,2000,g  9.0,4.0
# From MPC 56797
73P-M/Schwassmann-Wachmann,e,11.389,69.895,198.787,3.06205,0.183944,0.6933024,359.952,06/08.0/2006,2000,g  9.0,4.0
# From MPC 56797
73P-N/Schwassmann-Wachmann,e,11.389,69.909,198.754,3.06231,0.183921,0.6933024,359.952,06/08.0/2006,2000,g  9.0,4.0
# From MPC 56797
73P-P/Schwassmann-Wachmann,e,11.390,69.900,198.783,3.06222,0.183929,0.6933024,359.839,06/07.0/2006,2000,g  9.0,4.0
# From MPC 56797
73P-Q/Schwassmann-Wachmann,e,11.387,69.944,198.717,3.06298,0.183860,0.6933024,359.867,06/07.0/2006,2000,g  9.0,4.0
# From MPC 56797
73P-R/Schwassmann-Wachmann,e,11.388,69.904,198.776,3.06224,0.183927,0.6933024,359.966,06/08.0/2006,2000,g  9.0,4.0
# From MPC 56797
73P-S/Schwassmann-Wachmann,e,11.127,77.364,188.229,3.22719,0.170007,0.6933024,359.883,06/08.0/2006,2000,g  9.0,4.0
# From MPEC 2023-J29
73P-T/Schwassmann-Wachmann,e,11.2136,69.4182,198.9410,3.059927,0.1841355,0.70147676,151.4910,12/03.0/2024,2000,g  9.0,4.0
# From MPC 56797
73P-U/Schwassmann-Wachmann,e,11.384,69.994,198.659,3.06366,0.183799,0.6933024,359.997,06/09.0/2006,2000,g  9.0,4.0
# From MPC 56797
73P-V/Schwassmann-Wachmann,e,11.651,65.236,204.943,2.97417,0.192156,0.6933024,359.908,06/08.0/2006,2000,g  9.0,4.0
# From MPC 56797
73P-W/Schwassmann-Wachmann,e,11.390,69.884,198.803,3.06185,0.183962,0.6933024,359.908,06/08.0/2006,2000,g  9.0,4.0
# From MPC 56798
73P-X/Schwassmann-Wachmann,e,11.388,69.900,198.778,3.06207,0.183942,0.6933024,359.896,06/08.0/2006,2000,g  9.0,4.0
# From MPC 56798
73P-Y/Schwassmann-Wachmann,e,11.391,69.879,198.785,3.06200,0.183948,0.6933024,359.858,06/08.0/2006,2000,g  9.0,4.0
# From MPC 56798
73P-Z/Schwassmann-Wachmann,e,11.349,70.493,198.017,3.07155,0.183091,0.6933024,359.943,06/08.0/2006,2000,g  9.0,4.0
# From MPC 56798
73P-AA/Schwassmann-Wachmann,e,11.390,69.883,198.804,3.06182,0.183965,0.6933024,359.984,06/09.0/2006,2000,g  9.0,4.0
# From MPC 56798
73P-AB/Schwassmann-Wachmann,e,11.390,69.888,198.792,3.06183,0.183964,0.6933024,359.872,06/08.0/2006,2000,g  9.0,4.0
# From MPC 56798
73P-AC/Schwassmann-Wachmann,e,11.387,69.914,198.766,3.06223,0.183927,0.6933024,359.872,06/08.0/2006,2000,g  9.0,4.0
# From MPC 56798
73P-AD/Schwassmann-Wachmann,e,11.355,70.416,198.119,3.07035,0.183198,0.6933024,359.873,06/08.0/2006,2000,g  9.0,4.0
# From MPC 56798
73P-AE/Schwassmann-Wachmann,e,11.390,69.891,198.790,3.06196,0.183952,0.6933024,359.935,06/08.0/2006,2000,g  9.0,4.0
# From MPC 56798
73P-AF/Schwassmann-Wachmann,e,11.356,70.302,198.217,3.06961,0.183265,0.6933024,359.846,06/06.0/2006,2000,g  9.0,4.0
# From MPC 56798
73P-AG/Schwassmann-Wachmann,e,11.386,69.932,198.724,3.06233,0.183919,0.6933024,359.997,06/09.0/2006,2000,g  9.0,4.0
# From MPC 56798
73P-AH/Schwassmann-Wachmann,e,11.331,70.695,197.755,3.07445,0.182832,0.6933024,359.885,06/08.0/2006,2000,g  9.0,4.0
# From MPC 56798
73P-AI/Schwassmann-Wachmann,e,11.392,69.885,198.806,3.06205,0.183944,0.6933024,359.864,06/08.0/2006,2000,g  9.0,4.0
# From MPC 56799
73P-AJ/Schwassmann-Wachmann,e,11.385,70.041,198.663,3.06262,0.183892,0.6933024,359.864,06/08.0/2006,2000,g  9.0,4.0
# From MPC 56799
73P-AK/Schwassmann-Wachmann,e,11.389,69.784,198.822,3.06244,0.183909,0.6933024,359.927,06/08.0/2006,2000,g  9.0,4.0
# From MPC 56799
73P-AL/Schwassmann-Wachmann,e,11.395,69.843,198.857,3.06140,0.184003,0.6933024,359.916,06/08.0/2006,2000,g  9.0,4.0
# From MPC 56799
73P-AM/Schwassmann-Wachmann,e,11.394,69.876,198.815,3.06205,0.183944,0.6933024,359.951,06/08.0/2006,2000,g  9.0,4.0
# From MPC 56799
73P-AN/Schwassmann-Wachmann,e,11.393,69.870,198.820,3.06185,0.183962,0.6933024,359.940,06/08.0/2006,2000,g  9.0,4.0
# From MPC 56799
73P-AO/Schwassmann-Wachmann,e,11.210,71.286,197.007,3.07823,0.182496,0.6933024,359.853,06/07.0/2006,2000,g  9.0,4.0
# From MPC 56799
73P-AP/Schwassmann-Wachmann,e,11.393,69.895,198.794,3.06223,0.183928,0.6933024,359.874,06/06.0/2006,2000,g  9.0,4.0
# From MPC 56799
73P-AQ/Schwassmann-Wachmann,e,11.387,69.911,198.770,3.06230,0.183921,0.6933024,359.831,06/07.0/2006,2000,g  9.0,4.0
# From MPC 56799
73P-AR/Schwassmann-Wachmann,e,11.385,69.946,198.722,3.06285,0.183872,0.6933024,359.847,06/06.0/2006,2000,g  9.0,4.0
# From MPC 56799
73P-AS/Schwassmann-Wachmann,e,11.392,69.906,198.773,3.06237,0.183915,0.6933024,359.938,06/06.0/2006,2000,g  9.0,4.0
# From MPC 56799
73P-AT/Schwassmann-Wachmann,e,11.391,69.901,198.778,3.06248,0.183905,0.6933024,359.958,06/06.0/2006,2000,g  9.0,4.0
# From MPC 56799
